start=new Date('2021-11-05T00:00:00.000Z').valueOf();
sats=[{"TIME_SYSTEM":"UTC","REF_FRAME":"TEME","RA_OF_ASC_NODE":"31.8348","BSTAR":"0.00101130000000","CLASSIFICATION_TYPE":"U","CENTER_NAME":"EARTH","REV_AT_EPOCH":"2478","EPHEMERIS_TYPE":"0","TLE_LINE1":"1 48666U 21044AE  21308.60146795  .00014824  00000-0  10113-2 0  9990","GP_ID":"188956358","OBJECT_TYPE":"PAYLOAD","FILE":"3202404","DECAY_DATE":null,"MEAN_ELEMENT_THEORY":"SGP4","ECCENTRICITY":"0.00013580","OBJECT_ID":"2021-044AE","MEAN_MOTION":"15.06424497","LAUNCH_DATE":"2021-05-26","APOAPSIS":"548.079","EPOCH":"2021-11-04T14:26:06.830880","ARG_OF_PERICENTER":"87.5674","TLE_LINE2":"2 48666  53.0558  31.8348 0001358  87.5674 272.5471 15.06424497 24780","SEMIMAJOR_AXIS":"6925.273","MEAN_MOTION_DDOT":"0.0000000000000","ELEMENT_SET_NO":"999","OBJECT_NAME":"STARLINK-2666","RCS_SIZE":"LARGE","SITE":"AFETR","PERIAPSIS":"546.198","INCLINATION":"53.0558","PERIOD":"95.591","COUNTRY_CODE":"US","MEAN_ANOMALY":"272.5471","NORAD_CAT_ID":"48666","MEAN_MOTION_DOT":"0.00014824"},{"TLE_LINE2":"2 48667  53.0564  32.3534 0001175  91.9153 268.1971 15.06403560 24772","SEMIMAJOR_AXIS":"6925.338","EPOCH":"2021-11-04T11:37:37.081344","ARG_OF_PERICENTER":"91.9153","RCS_SIZE":"LARGE","MEAN_MOTION_DDOT":"0.0000000000000","ELEMENT_SET_NO":"999","OBJECT_NAME":"STARLINK-2735","PERIAPSIS":"546.389","SITE":"AFETR","MEAN_MOTION":"15.06403560","LAUNCH_DATE":"2021-05-26","APOAPSIS":"548.016","COUNTRY_CODE":"US","NORAD_CAT_ID":"48667","MEAN_ANOMALY":"268.1971","MEAN_MOTION_DOT":"0.00001795","INCLINATION":"53.0564","PERIOD":"95.592","REV_AT_EPOCH":"2477","CENTER_NAME":"EARTH","EPHEMERIS_TYPE":"0","TLE_LINE1":"1 48667U 21044AF  21308.48445696  .00001795  00000-0  13937-3 0  9990","TIME_SYSTEM":"UTC","REF_FRAME":"TEME","BSTAR":"0.00013937000000","RA_OF_ASC_NODE":"32.3534","CLASSIFICATION_TYPE":"U","ECCENTRICITY":"0.00011750","DECAY_DATE":null,"MEAN_ELEMENT_THEORY":"SGP4","OBJECT_ID":"2021-044AF","OBJECT_TYPE":"PAYLOAD","GP_ID":"188897212","FILE":"3200778"},{"RCS_SIZE":"LARGE","MEAN_MOTION_DDOT":"0.0000000000000","OBJECT_NAME":"STARLINK-2738","ELEMENT_SET_NO":"999","SEMIMAJOR_AXIS":"6925.290","TLE_LINE2":"2 48668  53.0566  31.1831 0001194  81.0954 279.0171 15.06419249 24811","ARG_OF_PERICENTER":"81.0954","EPOCH":"2021-11-04T17:54:28.161792","PERIAPSIS":"546.328","SITE":"AFETR","LAUNCH_DATE":"2021-05-26","MEAN_MOTION":"15.06419249","APOAPSIS":"547.981","COUNTRY_CODE":"US","MEAN_MOTION_DOT":"0.00006715","NORAD_CAT_ID":"48668","MEAN_ANOMALY":"279.0171","INCLINATION":"53.0566","PERIOD":"95.591","EPHEMERIS_TYPE":"0","CENTER_NAME":"EARTH","REV_AT_EPOCH":"2481","TLE_LINE1":"1 48668U 21044AG  21308.74615928  .00006715  00000-0  46904-3 0  9994","REF_FRAME":"TEME","TIME_SYSTEM":"UTC","CLASSIFICATION_TYPE":"U","BSTAR":"0.00046904000000","RA_OF_ASC_NODE":"31.1831","OBJECT_ID":"2021-044AG","ECCENTRICITY":"0.00011940","MEAN_ELEMENT_THEORY":"SGP4","DECAY_DATE":null,"OBJECT_TYPE":"PAYLOAD","GP_ID":"188956126","FILE":"3202404"},{"OBJECT_ID":"2021-044AH","DECAY_DATE":null,"MEAN_ELEMENT_THEORY":"SGP4","ECCENTRICITY":"0.00012780","GP_ID":"188956010","OBJECT_TYPE":"PAYLOAD","FILE":"3202404","EPHEMERIS_TYPE":"0","REV_AT_EPOCH":"2478","CENTER_NAME":"EARTH","TLE_LINE1":"1 48669U 21044AH  21308.60977718  .00002413  00000-0  18078-3 0  9990","TIME_SYSTEM":"UTC","REF_FRAME":"TEME","CLASSIFICATION_TYPE":"U","RA_OF_ASC_NODE":"31.8123","BSTAR":"0.00018078000000","COUNTRY_CODE":"US","MEAN_MOTION_DOT":"0.00002413","MEAN_ANOMALY":"285.0989","NORAD_CAT_ID":"48669","INCLINATION":"53.0532","PERIOD":"95.591","OBJECT_NAME":"STARLINK-2707","MEAN_MOTION_DDOT":"0.0000000000000","ELEMENT_SET_NO":"999","RCS_SIZE":"LARGE","ARG_OF_PERICENTER":"75.0141","EPOCH":"2021-11-04T14:38:04.748352","TLE_LINE2":"2 48669  53.0532  31.8123 0001278  75.0141 285.0989 15.06410202 24780","SEMIMAJOR_AXIS":"6925.317","SITE":"AFETR","PERIAPSIS":"546.297","LAUNCH_DATE":"2021-05-26","MEAN_MOTION":"15.06410202","APOAPSIS":"548.067"},{"OBJECT_ID":"2021-044AJ","DECAY_DATE":null,"MEAN_ELEMENT_THEORY":"SGP4","ECCENTRICITY":"0.00013430","FILE":"3202404","GP_ID":"188956242","OBJECT_TYPE":"PAYLOAD","TLE_LINE1":"1 48670U 21044AJ  21308.67242738  .00003670  00000-0  26499-3 0  9998","EPHEMERIS_TYPE":"0","CENTER_NAME":"EARTH","REV_AT_EPOCH":"2479","CLASSIFICATION_TYPE":"U","RA_OF_ASC_NODE":"31.5301","BSTAR":"0.00026499000000","REF_FRAME":"TEME","TIME_SYSTEM":"UTC","MEAN_MOTION_DOT":"0.00003670","MEAN_ANOMALY":"277.3264","NORAD_CAT_ID":"48670","COUNTRY_CODE":"US","PERIOD":"95.591","INCLINATION":"53.0533","SITE":"AFETR","PERIAPSIS":"546.217","ELEMENT_SET_NO":"999","MEAN_MOTION_DDOT":"0.0000000000000","OBJECT_NAME":"STARLINK-2763","RCS_SIZE":"LARGE","EPOCH":"2021-11-04T16:08:17.725632","ARG_OF_PERICENTER":"82.7878","TLE_LINE2":"2 48670  53.0533  31.5301 0001343  82.7878 277.3264 15.06421575 24799","SEMIMAJOR_AXIS":"6925.282","APOAPSIS":"548.077","LAUNCH_DATE":"2021-05-26","MEAN_MOTION":"15.06421575"},{"ARG_OF_PERICENTER":"85.2725","EPOCH":"2021-11-04T16:02:59.764992","SEMIMAJOR_AXIS":"6925.315","TLE_LINE2":"2 48671  53.0578  31.5345 0001230  85.2725 274.8405 15.06410915 24796","ELEMENT_SET_NO":"999","MEAN_MOTION_DDOT":"0.0000000000000","OBJECT_NAME":"STARLINK-2745","RCS_SIZE":"LARGE","SITE":"AFETR","PERIAPSIS":"546.328","MEAN_MOTION":"15.06410915","LAUNCH_DATE":"2021-05-26","APOAPSIS":"548.032","COUNTRY_CODE":"US","MEAN_ANOMALY":"274.8405","NORAD_CAT_ID":"48671","MEAN_MOTION_DOT":"0.00004543","INCLINATION":"53.0578","PERIOD":"95.591","CENTER_NAME":"EARTH","REV_AT_EPOCH":"2479","EPHEMERIS_TYPE":"0","TLE_LINE1":"1 48671U 21044AK  21308.66874728  .00004543  00000-0  32356-3 0  9997","TIME_SYSTEM":"UTC","REF_FRAME":"TEME","RA_OF_ASC_NODE":"31.5345","BSTAR":"0.00032356000000","CLASSIFICATION_TYPE":"U","DECAY_DATE":null,"MEAN_ELEMENT_THEORY":"SGP4","ECCENTRICITY":"0.00012300","OBJECT_ID":"2021-044AK","GP_ID":"188955555","OBJECT_TYPE":"PAYLOAD","FILE":"3202404"},{"TIME_SYSTEM":"UTC","REF_FRAME":"TEME","BSTAR":"0.00038318000000","RA_OF_ASC_NODE":"31.2493","CLASSIFICATION_TYPE":"U","REV_AT_EPOCH":"2480","CENTER_NAME":"EARTH","EPHEMERIS_TYPE":"0","TLE_LINE1":"1 48672U 21044AL  21308.73140441  .00005434  00000-0  38318-3 0  9998","OBJECT_TYPE":"PAYLOAD","GP_ID":"188955786","FILE":"3202404","ECCENTRICITY":"0.00012490","DECAY_DATE":null,"MEAN_ELEMENT_THEORY":"SGP4","OBJECT_ID":"2021-044AL","MEAN_MOTION":"15.06420835","LAUNCH_DATE":"2021-05-26","APOAPSIS":"548.015","TLE_LINE2":"2 48672  53.0570  31.2493 0001249  86.6190 273.4941 15.06420835 24805","SEMIMAJOR_AXIS":"6925.285","ARG_OF_PERICENTER":"86.6190","EPOCH":"2021-11-04T17:33:13.341024","RCS_SIZE":"LARGE","ELEMENT_SET_NO":"999","MEAN_MOTION_DDOT":"0.0000000000000","OBJECT_NAME":"STARLINK-2705","PERIAPSIS":"546.285","SITE":"AFETR","INCLINATION":"53.0570","PERIOD":"95.591","COUNTRY_CODE":"US","NORAD_CAT_ID":"48672","MEAN_ANOMALY":"273.4941","MEAN_MOTION_DOT":"0.00005434"},{"EPHEMERIS_TYPE":"0","REV_AT_EPOCH":"2480","CENTER_NAME":"EARTH","TLE_LINE1":"1 48673U 21044AM  21308.72772788  .00002802  00000-0  20685-3 0  9997","REF_FRAME":"TEME","TIME_SYSTEM":"UTC","CLASSIFICATION_TYPE":"U","BSTAR":"0.00020685000000","RA_OF_ASC_NODE":"31.2662","OBJECT_ID":"2021-044AM","ECCENTRICITY":"0.00012590","DECAY_DATE":null,"MEAN_ELEMENT_THEORY":"SGP4","OBJECT_TYPE":"PAYLOAD","GP_ID":"188955671","FILE":"3202404","RCS_SIZE":"LARGE","ELEMENT_SET_NO":"999","MEAN_MOTION_DDOT":"0.0000000000000","OBJECT_NAME":"STARLINK-2711","SEMIMAJOR_AXIS":"6925.311","TLE_LINE2":"2 48673  53.0565  31.2662 0001259  83.3888 276.7244 15.06412386 24801","ARG_OF_PERICENTER":"83.3888","EPOCH":"2021-11-04T17:27:55.688832","PERIAPSIS":"546.304","SITE":"AFETR","LAUNCH_DATE":"2021-05-26","MEAN_MOTION":"15.06412386","APOAPSIS":"548.047","COUNTRY_CODE":"US","MEAN_MOTION_DOT":"0.00002802","NORAD_CAT_ID":"48673","MEAN_ANOMALY":"276.7244","INCLINATION":"53.0565","PERIOD":"95.591"},{"CLASSIFICATION_TYPE":"U","BSTAR":"0.00015644000000","RA_OF_ASC_NODE":"31.2827","TIME_SYSTEM":"UTC","REF_FRAME":"TEME","TLE_LINE1":"1 48674U 21044AN  21308.72404055  .00002050  00000-0  15644-3 0  9991","EPHEMERIS_TYPE":"0","CENTER_NAME":"EARTH","REV_AT_EPOCH":"2480","FILE":"3202404","OBJECT_TYPE":"PAYLOAD","GP_ID":"188956359","OBJECT_ID":"2021-044AN","ECCENTRICITY":"0.00011460","DECAY_DATE":null,"MEAN_ELEMENT_THEORY":"SGP4","APOAPSIS":"547.989","LAUNCH_DATE":"2021-05-26","MEAN_MOTION":"15.06405931","PERIAPSIS":"546.402","SITE":"AFETR","RCS_SIZE":"LARGE","MEAN_MOTION_DDOT":"0.0000000000000","ELEMENT_SET_NO":"999","OBJECT_NAME":"STARLINK-2712","SEMIMAJOR_AXIS":"6925.330","TLE_LINE2":"2 48674  53.0566  31.2827 0001146  83.9340 276.1780 15.06405931 24807","EPOCH":"2021-11-04T17:22:37.103520","ARG_OF_PERICENTER":"83.9340","PERIOD":"95.592","INCLINATION":"53.0566","MEAN_MOTION_DOT":"0.00002050","NORAD_CAT_ID":"48674","MEAN_ANOMALY":"276.1780","COUNTRY_CODE":"US"},{"TIME_SYSTEM":"UTC","REF_FRAME":"TEME","BSTAR":"0.00090982000000","RA_OF_ASC_NODE":"31.8978","CLASSIFICATION_TYPE":"U","CENTER_NAME":"EARTH","REV_AT_EPOCH":"2478","EPHEMERIS_TYPE":"0","TLE_LINE1":"1 48675U 21044AP  21308.58765729  .00013308  00000-0  90982-3 0  9990","OBJECT_TYPE":"PAYLOAD","GP_ID":"188955896","FILE":"3202404","ECCENTRICITY":"0.00012990","DECAY_DATE":null,"MEAN_ELEMENT_THEORY":"SGP4","OBJECT_ID":"2021-044AP","MEAN_MOTION":"15.06432269","LAUNCH_DATE":"2021-05-26","APOAPSIS":"548.014","TLE_LINE2":"2 48675  53.0570  31.8978 0001299  79.0861 281.0274 15.06432269 24783","SEMIMAJOR_AXIS":"6925.250","EPOCH":"2021-11-04T14:06:13.589856","ARG_OF_PERICENTER":"79.0861","RCS_SIZE":"LARGE","ELEMENT_SET_NO":"999","MEAN_MOTION_DDOT":"0.0000000000000","OBJECT_NAME":"STARLINK-2737","PERIAPSIS":"546.215","SITE":"AFETR","INCLINATION":"53.0570","PERIOD":"95.590","COUNTRY_CODE":"US","NORAD_CAT_ID":"48675","MEAN_ANOMALY":"281.0274","MEAN_MOTION_DOT":"0.00013308"}];
